CCSDS_OMM_VERS = 2.0
CREATION_DATE  = 
ORIGINATOR     = 

OBJECT_NAME    = STARLINK-35843
OBJECT_ID      = 2026-018T
CENTER_NAME    = EARTH
REF_FRAME      = TEME
TIME_SYSTEM    = UTC
MEAN_ELEMENT_THEORY = SGP/SGP4

EPOCH          = 2026-02-11T06:00:00.999648
MEAN_MOTION    = 15.80872122
ECCENTRICITY   = .00014483
INCLINATION    = 97.2777
RA_OF_ASC_NODE = 106.7294
ARG_OF_PERICENTER = 78.9345
MEAN_ANOMALY   = 305.7050

EPHEMERIS_TYPE = 0
CLASSIFICATION_TYPE = U
NORAD_CAT_ID   = 67606
ELEMENT_SET_NO = 999
REV_AT_EPOCH   = 315
BSTAR          = -.47185551E-3
MEAN_MOTION_DOT = -.89832E-3
MEAN_MOTION_DDOT = 0

CCSDS_OMM_VERS = 2.0
CREATION_DATE  = 
ORIGINATOR     = 

OBJECT_NAME    = STARLINK-36351
OBJECT_ID      = 2026-018U
CENTER_NAME    = EARTH
REF_FRAME      = TEME
TIME_SYSTEM    = UTC
MEAN_ELEMENT_THEORY = SGP/SGP4

EPOCH          = 2026-02-11T06:00:00.999648
MEAN_MOTION    = 15.80894459
ECCENTRICITY   = .00017133
INCLINATION    = 97.2781
RA_OF_ASC_NODE = 106.7321
ARG_OF_PERICENTER = 72.2862
MEAN_ANOMALY   = 317.3694

EPHEMERIS_TYPE = 0
CLASSIFICATION_TYPE = U
NORAD_CAT_ID   = 67607
ELEMENT_SET_NO = 999
REV_AT_EPOCH   = 315
BSTAR          = -.7455298E-3
MEAN_MOTION_DOT = -.141178E-2
MEAN_MOTION_DDOT = 0

CCSDS_OMM_VERS = 2.0
CREATION_DATE  = 
ORIGINATOR     = 

OBJECT_NAME    = STARLINK-36411
OBJECT_ID      = 2026-018V
CENTER_NAME    = EARTH
REF_FRAME      = TEME
TIME_SYSTEM    = UTC
MEAN_ELEMENT_THEORY = SGP/SGP4

EPOCH          = 2026-02-11T06:00:00.999648
MEAN_MOTION    = 15.80857980
ECCENTRICITY   = .00015478
INCLINATION    = 97.2764
RA_OF_ASC_NODE = 106.7344
ARG_OF_PERICENTER = 89.5660
MEAN_ANOMALY   = 307.8331

EPHEMERIS_TYPE = 0
CLASSIFICATION_TYPE = U
NORAD_CAT_ID   = 67608
ELEMENT_SET_NO = 999
REV_AT_EPOCH   = 314
BSTAR          = -.45267086E-3
MEAN_MOTION_DOT = -.86167E-3
MEAN_MOTION_DDOT = 0

CCSDS_OMM_VERS = 2.0
CREATION_DATE  = 
ORIGINATOR     = 

OBJECT_NAME    = STARLINK-36312
OBJECT_ID      = 2026-018W
CENTER_NAME    = EARTH
REF_FRAME      = TEME
TIME_SYSTEM    = UTC
MEAN_ELEMENT_THEORY = SGP/SGP4

EPOCH          = 2026-02-11T06:00:00.999648
MEAN_MOTION    = 15.80867346
ECCENTRICITY   = .00014213
INCLINATION    = 97.2767
RA_OF_ASC_NODE = 106.7374
ARG_OF_PERICENTER = 97.3007
MEAN_ANOMALY   = 306.8469

EPHEMERIS_TYPE = 0
CLASSIFICATION_TYPE = U
NORAD_CAT_ID   = 67609
ELEMENT_SET_NO = 999
REV_AT_EPOCH   = 315
BSTAR          = -.48709405E-3
MEAN_MOTION_DOT = -.92678E-3
MEAN_MOTION_DDOT = 0

CCSDS_OMM_VERS = 2.0
CREATION_DATE  = 
ORIGINATOR     = 

OBJECT_NAME    = STARLINK-36387
OBJECT_ID      = 2026-018X
CENTER_NAME    = EARTH
REF_FRAME      = TEME
TIME_SYSTEM    = UTC
MEAN_ELEMENT_THEORY = SGP/SGP4

EPOCH          = 2026-02-11T06:00:00.999648
MEAN_MOTION    = 15.80832651
ECCENTRICITY   = .00013187
INCLINATION    = 97.2764
RA_OF_ASC_NODE = 106.7408
ARG_OF_PERICENTER = 79.1744
MEAN_ANOMALY   = 333.1808

EPHEMERIS_TYPE = 0
CLASSIFICATION_TYPE = U
NORAD_CAT_ID   = 67610
ELEMENT_SET_NO = 999
REV_AT_EPOCH   = 315
BSTAR          = -.1631516E-3
MEAN_MOTION_DOT = -.31305E-3
MEAN_MOTION_DDOT = 0

CCSDS_OMM_VERS = 2.0
CREATION_DATE  = 
ORIGINATOR     = 

OBJECT_NAME    = STARLINK-36636
OBJECT_ID      = 2026-018Y
CENTER_NAME    = EARTH
REF_FRAME      = TEME
TIME_SYSTEM    = UTC
MEAN_ELEMENT_THEORY = SGP/SGP4

EPOCH          = 2026-02-11T06:00:00.999648
MEAN_MOTION    = 15.80831626
ECCENTRICITY   = .00012818
INCLINATION    = 97.2756
RA_OF_ASC_NODE = 106.7430
ARG_OF_PERICENTER = 90.3411
MEAN_ANOMALY   = 328.1058

EPHEMERIS_TYPE = 0
CLASSIFICATION_TYPE = U
NORAD_CAT_ID   = 67611
ELEMENT_SET_NO = 999
REV_AT_EPOCH   = 310
BSTAR          = -.25655633E-3
MEAN_MOTION_DOT = -.49044E-3
MEAN_MOTION_DDOT = 0

CCSDS_OMM_VERS = 2.0
CREATION_DATE  = 
ORIGINATOR     = 

OBJECT_NAME    = STARLINK-36407
OBJECT_ID      = 2026-018Z
CENTER_NAME    = EARTH
REF_FRAME      = TEME
TIME_SYSTEM    = UTC
MEAN_ELEMENT_THEORY = SGP/SGP4

EPOCH          = 2026-02-11T06:00:00.999648
MEAN_MOTION    = 15.80794586
ECCENTRICITY   = .00016334
INCLINATION    = 97.2763
RA_OF_ASC_NODE = 106.7459
ARG_OF_PERICENTER = 76.9021
MEAN_ANOMALY   = 346.7530

EPHEMERIS_TYPE = 0
CLASSIFICATION_TYPE = U
NORAD_CAT_ID   = 67612
ELEMENT_SET_NO = 999
REV_AT_EPOCH   = 320
BSTAR          = .20648702E-3
MEAN_MOTION_DOT = .39552E-3
MEAN_MOTION_DDOT = 0

CCSDS_OMM_VERS = 2.0
CREATION_DATE  = 
ORIGINATOR     = 

OBJECT_NAME    = STARLINK-36597
OBJECT_ID      = 2026-018AA
CENTER_NAME    = EARTH
REF_FRAME      = TEME
TIME_SYSTEM    = UTC
MEAN_ELEMENT_THEORY = SGP/SGP4

EPOCH          = 2026-02-11T06:00:00.999648
MEAN_MOTION    = 15.80872811
ECCENTRICITY   = .00018182
INCLINATION    = 97.2753
RA_OF_ASC_NODE = 106.7476
ARG_OF_PERICENTER = 62.4497
MEAN_ANOMALY   = 7.0105

EPHEMERIS_TYPE = 0
CLASSIFICATION_TYPE = U
NORAD_CAT_ID   = 67613
ELEMENT_SET_NO = 999
REV_AT_EPOCH   = 310
BSTAR          = -.37773997E-3
MEAN_MOTION_DOT = -.72094E-3
MEAN_MOTION_DDOT = 0

CCSDS_OMM_VERS = 2.0
CREATION_DATE  = 
ORIGINATOR     = 

OBJECT_NAME    = NEONSAT-1A
OBJECT_ID      = 2026-019A
CENTER_NAME    = EARTH
REF_FRAME      = TEME
TIME_SYSTEM    = UTC
MEAN_ELEMENT_THEORY = SGP/SGP4

EPOCH          = 2026-02-10T21:35:53.975328
MEAN_MOTION    = 15.07590975
ECCENTRICITY   = .0012052
INCLINATION    = 97.4083
RA_OF_ASC_NODE = 166.4431
ARG_OF_PERICENTER = 265.6434
MEAN_ANOMALY   = 94.3417

EPHEMERIS_TYPE = 0
CLASSIFICATION_TYPE = U
NORAD_CAT_ID   = 67614
ELEMENT_SET_NO = 999
REV_AT_EPOCH   = 178
BSTAR          = .24868481E-3
MEAN_MOTION_DOT = .3729E-4
MEAN_MOTION_DDOT = 0

CCSDS_OMM_VERS = 2.0
CREATION_DATE  = 
ORIGINATOR     = 

OBJECT_NAME    = ELECTRON R/B
OBJECT_ID      = 2026-019B
CENTER_NAME    = EARTH
REF_FRAME      = TEME
TIME_SYSTEM    = UTC
MEAN_ELEMENT_THEORY = SGP/SGP4

EPOCH          = 2026-02-11T05:56:22.321248
MEAN_MOTION    = 16.30487032
ECCENTRICITY   = .00617467
INCLINATION    = 97.4109
RA_OF_ASC_NODE = 168.3731
ARG_OF_PERICENTER = 186.1547
MEAN_ANOMALY   = 173.8996

EPHEMERIS_TYPE = 0
CLASSIFICATION_TYPE = U
NORAD_CAT_ID   = 67615
ELEMENT_SET_NO = 999
REV_AT_EPOCH   = 193
BSTAR          = .72654963E-3
MEAN_MOTION_DOT = .8945026E-1
MEAN_MOTION_DDOT = .1990417E-5

CCSDS_OMM_VERS = 2.0
CREATION_DATE  = 
ORIGINATOR     = 

OBJECT_NAME    = ELECTRON KICK STAGE R/B
OBJECT_ID      = 2026-019C
CENTER_NAME    = EARTH
REF_FRAME      = TEME
TIME_SYSTEM    = UTC
MEAN_ELEMENT_THEORY = SGP/SGP4

EPOCH          = 2026-02-11T07:09:35.335296
MEAN_MOTION    = 15.60956481
ECCENTRICITY   = .0185555
INCLINATION    = 97.4044
RA_OF_ASC_NODE = 167.7384
ARG_OF_PERICENTER = 218.1266
MEAN_ANOMALY   = 140.6745

EPHEMERIS_TYPE = 0
CLASSIFICATION_TYPE = U
NORAD_CAT_ID   = 67616
ELEMENT_SET_NO = 999
REV_AT_EPOCH   = 190
BSTAR          = .19694699E-2
MEAN_MOTION_DOT = .395748E-2
MEAN_MOTION_DDOT = .45198859E-4

CCSDS_OMM_VERS = 2.0
CREATION_DATE  = 
ORIGINATOR     = 

OBJECT_NAME    = STARLINK-36548
OBJECT_ID      = 2026-020A
CENTER_NAME    = EARTH
REF_FRAME      = TEME
TIME_SYSTEM    = UTC
MEAN_ELEMENT_THEORY = SGP/SGP4

EPOCH          = 2026-02-11T06:00:00.999648
MEAN_MOTION    = 15.76385901
ECCENTRICITY   = .00018516
INCLINATION    = 42.9989
RA_OF_ASC_NODE = 302.9738
ARG_OF_PERICENTER = 262.5465
MEAN_ANOMALY   = 37.3135

EPHEMERIS_TYPE = 0
CLASSIFICATION_TYPE = U
NORAD_CAT_ID   = 67617
ELEMENT_SET_NO = 999
REV_AT_EPOCH   = 314
BSTAR          = -.15877873E-4
MEAN_MOTION_DOT = -.3075E-4
MEAN_MOTION_DDOT = 0

