STARLINK-35843          
1 67606U 26018T   26042.25001157 -.00089832  00000+0 -47186-3 0  9997
2 67606  97.2777 106.7294 0001448  78.9345 305.7050 15.80872122  3153
STARLINK-36351          
1 67607U 26018U   26042.25001157 -.00141178  00000+0 -74553-3 0  9998
2 67607  97.2781 106.7321 0001713  72.2862 317.3694 15.80894459  3156
STARLINK-36411          
1 67608U 26018V   26042.25001157 -.00086167  00000+0 -45267-3 0  9995
2 67608  97.2764 106.7344 0001547  89.5660 307.8331 15.80857980  3144
STARLINK-36312          
1 67609U 26018W   26042.25001157 -.00092678  00000+0 -48709-3 0  9994
2 67609  97.2767 106.7374 0001421  97.3007 306.8469 15.80867346  3153
STARLINK-36387          
1 67610U 26018X   26042.25001157 -.00031305  00000+0 -16315-3 0  9994
2 67610  97.2764 106.7408 0001318  79.1744 333.1808 15.80832651  3152
STARLINK-36636          
1 67611U 26018Y   26042.25001157 -.00049044  00000+0 -25656-3 0  9992
2 67611  97.2756 106.7430 0001281  90.3411 328.1058 15.80831626  3101
STARLINK-36407          
1 67612U 26018Z   26042.25001157  .00039552  00000+0  20649-3 0  9991
2 67612  97.2763 106.7459 0001633  76.9021 346.7530 15.80794586  3204
STARLINK-36597          
1 67613U 26018AA  26042.25001157 -.00072094  00000+0 -37774-3 0  9999
2 67613  97.2753 106.7476 0001818  62.4497   7.0105 15.80872811  3107
NEONSAT-1A              
1 67614U 26019A   26041.89993027  .00003729  00000+0  24868-3 0  9993
2 67614  97.4083 166.4431 0012052 265.6434  94.3417 15.07590975  1784
ELECTRON R/B            
1 67615U 26019B   26042.24748057  .08945026  19904-5  72655-3 0  9994
2 67615  97.4109 168.3731 0061746 186.1547 173.8996 16.30487032  1932
ELECTRON KICK STAGE R/B 
1 67616U 26019C   26042.29832564  .00395748  45199-4  19695-2 0  9997
2 67616  97.4044 167.7384 0185555 218.1266 140.6745 15.60956481  1909
STARLINK-36548          
1 67617U 26020A   26042.25001157 -.00003075  00000+0 -15878-4 0  9991
2 67617  42.9989 302.9738 0001851 262.5465  37.3135 15.76385901  3142
